IRIDIUM 150             
1 43257U 18030J   25242.84133538  .00000042  00000+0  78158-5 0  9992
2 43257  86.3933  51.8277 0002351  93.4650 266.6815 14.34217901388547
IRIDIUM 143             
1 43258U 18030K   25242.89208759  .00000135  00000+0  41273-4 0  9996
2 43258  86.3936  51.8878 0002571  93.6344 266.5146 14.34217597388484
IRIDIUM 161             
1 43478U 18047C   25242.88078657  .00000587  00000+0  16846-3 0  9997
2 43478  86.4511 209.7208 0002069  85.5084 274.6353 14.43281266383267
IRIDIUM 152             
1 43479U 18047D   25242.86479206  .00000307  00000+0  10260-3 0  9995
2 43479  86.3984 209.5882 0002020  91.9335 268.2092 14.34218606380875
IRIDIUM 147             
1 43480U 18047E   25242.87113715  .00000048  00000+0  10035-4 0  9991
2 43480  86.3986 209.5858 0002217  83.0740 277.0708 14.34217777380872
IRIDIUM 110             
1 43481U 18047F   25242.87747818  .00000086  00000+0  23536-4 0  9991
2 43481  86.3989 209.6673 0001813  81.0716 279.0685 14.34217863380865
IRIDIUM 162             
1 43482U 18047G   25242.87449384  .00000589  00000+0  16912-3 0  9996
2 43482  86.4510 209.6180 0001966  90.5423 269.6003 14.43278786383255
IRIDIUM 160             
1 43569U 18061A   25242.89308182  .00000197  00000+0  63143-4 0  9994
2 43569  86.4041 178.0975 0002021  81.6658 278.4767 14.34218879371760
